[{"OBJECT_NAME":"SHIYAN-20A (SY-20A)","OBJECT_ID":"2022-169A","EPOCH":"2026-03-09T23:38:29.678208","MEAN_MOTION":14.29494518,"ECCENTRICITY":0.0017718,"INCLINATION":59.9953,"RA_OF_ASC_NODE":208.2856,"ARG_OF_PERICENTER":122.2308,"MEAN_ANOMALY":238.0448,"EPHEMERIS_TYPE":0,"CLASSIFICATION_TYPE":"U","NORAD_CAT_ID":54699,"ELEMENT_SET_NO":999,"REV_AT_EPOCH":16917,"BSTAR":9.5561702e-5,"MEAN_MOTION_DOT":1.09e-6,"MEAN_MOTION_DDOT":0},{"OBJECT_NAME":"FENGYUN 1C DEB","OBJECT_ID":"1999-025AVE","EPOCH":"2026-03-09T19:58:30.975744","MEAN_MOTION":14.22207061,"ECCENTRICITY":0.00480861,"INCLINATION":98.6694,"RA_OF_ASC_NODE":168.6726,"ARG_OF_PERICENTER":291.855,"MEAN_ANOMALY":194.338,"EPHEMERIS_TYPE":0,"CLASSIFICATION_TYPE":"U","NORAD_CAT_ID":30820,"ELEMENT_SET_NO":999,"REV_AT_EPOCH":97661,"BSTAR":0.0019574875,"MEAN_MOTION_DOT":4.352e-5,"MEAN_MOTION_DDOT":0}]
